STARLINK-37629          
1 69443U 26127A   26189.17995343  .00148610  00000+0  95387-3 0  9995
2 69443  53.1593 158.0831 0000944  79.9000 280.2127 15.75306526  4716
STARLINK-37509          
1 69444U 26127B   26188.35094545  .00259099  00000+0  16380-2 0  9998
2 69444  53.1589 162.1522 0001580  83.2622 276.8578 15.75311217  4589
STARLINK-37641          
1 69445U 26127C   26188.33699816  .00148419  00000+0  95549-3 0  9997
2 69445  53.1570 162.0604 0000904  69.3445 290.7672 15.75238508  4588
STARLINK-37522          
1 69446U 26127D   26188.54094866  .00154120  00000+0  99061-3 0  9994
2 69446  53.1592 161.2041 0000976 145.1483 214.9602 15.75256110  4617
STARLINK-37640          
1 69447U 26127E   26188.51371978  .00067681  00000+0  44157-3 0  9995
2 69447  53.1603 161.0271 0000869  63.3382 296.7727 15.75269608  4616
STARLINK-37572          
1 69448U 26127F   26188.53220372  .00116344  00000+0  75187-3 0  9997
2 69448  53.1589 161.1477 0001235  68.9562 291.1590 15.75265222  4613
STARLINK-37643          
1 69449U 26127G   26189.04394275  .02605679  00000+0  13158-1 0  9993
2 69449  53.1586 158.6527 0010414 231.9747 128.0335 15.77939876  4692
STARLINK-37601          
1 69450U 26127H   26189.16668980 -.00162492  00000+0 -10729-2 0  9998
2 69450  53.1588 158.0426 0001045  86.3086 250.0499 15.75311931  6026
STARLINK-37578          
1 69451U 26127J   26188.52278991  .00239059  00000+0  15168-2 0  9991
2 69451  53.1563 161.0804 0000898 125.3585 234.7520 15.75286342  4611
STARLINK-37577          
1 69452U 26127K   26188.19195263  .00149876  00000+0  96441-3 0  9996
2 69452  53.1608 162.5686 0001593  53.1091 307.0076 15.75244638  4565
STARLINK-37500          
1 69453U 26127L   26188.39169380  .00186730  00000+0  11949-2 0  9999
2 69453  53.1563 161.6823 0001116 100.1671 259.9476 15.75251591  4595
STARLINK-37575          
1 69454U 26127M   26188.44152334  .00208974  00000+0  13328-2 0  9995
2 69454  53.1597 161.2784 0001150 135.7413 224.3699 15.75259275  4603
STARLINK-37642          
1 69455U 26127N   26188.52312286  .00185243  00000+0  11860-2 0  9991
2 69455  53.1570 161.0831 0000468  93.0801 267.0273 15.75245465  4613
STARLINK-37513          
1 69456U 26127P   26189.00002315 -.00118090  00000+0 -77493-3 0  9998
2 69456  53.1593 158.0744 0001130  88.9432  48.0234 15.75298860  5991
STARLINK-37563          
1 69457U 26127Q   26189.20741242  .00196609  00000+0  12492-2 0  9997
2 69457  53.1590 157.5234 0001176 155.4954 204.6122 15.75384163  4724
STARLINK-37565          
1 69458U 26127R   26189.19803015  .00200228  00000+0  12749-2 0  9991
2 69458  53.1578 157.4605 0001762 118.6891 241.4307 15.75324176  4726
STARLINK-37498          
1 69459U 26127S   26188.45481093  .00205146  00000+0  13091-2 0  9993
2 69459  53.1569 161.3641 0001023  92.1902 267.9235 15.75258177  4607
STARLINK-37384          
1 69460U 26127T   26188.31430735  .00211023  00000+0  13433-2 0  9998
2 69460  53.1595 161.9053 0001727  66.9437 293.1765 15.75296523  4587
STARLINK-37707          
1 69461U 26127U   26189.00800867  .00129918  00000+0  83685-3 0  9991
2 69461  53.1581 158.4086 0001277 123.0851 237.0292 15.75290513  4692
STARLINK-37525          
1 69462U 26127V   26188.49556246  .00149131  00000+0  95931-3 0  9999
2 69462  53.1573 160.8983 0001011 127.4464 232.6648 15.75254531  4619
STARLINK-37526          
1 69463U 26127W   26189.18925925  .00160102  00000+0  10237-2 0  9997
2 69463  53.1567 157.3956 0001236 123.2762 236.8377 15.75357090  4729
STARLINK-37574          
1 69464U 26127X   26188.49589209  .00135606  00000+0  87253-3 0  9996
2 69464  53.1574 160.8984 0001651  55.6685 304.4491 15.75294861  4614
STARLINK-37535          
1 69465U 26127Y   26187.98345803  .00143316  00000+0  92244-3 0  9993
2 69465  53.1566 163.3879 0001517  52.9413 307.1745 15.75260762  4533
STARLINK-37583          
1 69466U 26127Z   26188.52756621  .00137878  00000+0  88781-3 0  9996
2 69466  53.1585 160.3716 0001118  87.1389 272.9759 15.75270235  4621
STARLINK-37546          
1 69467U 26127AA  26188.48681353  .00076004  00000+0  49509-3 0  9999
2 69467  53.1562 160.8359 0000842 107.0907 253.0206 15.75259490  4612
STARLINK-37532          
1 69468U 26127AB  26188.38705828  .00206077  00000+0  13153-2 0  9993
2 69468  53.1597 160.9095 0001162  99.3883 260.7268 15.75251754  4608
STARLINK-37708          
1 69469U 26127AC  26188.86716370  .00156576  00000+0  10074-2 0  9998
2 69469  53.1559 158.9398 0001289 115.3199 244.7955 15.75225143  4674
STARLINK-37686          
1 69470U 26127AD  26188.54572677  .00236397  00000+0  14894-2 0  9999
2 69470  53.1579 160.4890 0001533  24.0535 336.0557 15.75456831  4623
STARLINK-37451          
1 69471U 26127AE  26188.29684172  .00140314  00000+0  70135-3 0  9990
2 69471  53.1578 161.0455 0001239  69.4775 290.6380 15.80922130  4590
DTC TEST OBJECT A       
1 69472U 26128A   26189.05352786  .00006753  00000+0  11185-3 0  9998
2 69472  55.0005 208.7216 0010858 352.5965   7.4907 15.53450137  4474
